0 MOLNIYA 3-24
1 15738U 85040A   13280.42090595  .00000100  00000-0  13789-1 0  3184
2 15738 064.3538 222.4292 6447513 284.1351 172.6061 02.55628289222749
0 MOLNIYA 3-24
1 15738U 85040A   13283.25464264  .00000064  00000-0  57344-2 0  3192
2 15738 064.3540 221.9980 6446295 284.0952 260.4067 02.55628677222813
0 MOLNIYA 3-24
1 15738U 85040A   13287.68356319  .00000022  00000-0  57344-2 0  3200
2 15738 064.3488 221.3323 6444452 284.0354 016.2085 02.55628656222935
0 MOLNIYA 3-24
1 15738U 85040A   13292.33777591 -.00000010  00000-0 -32178-1 0  3214
2 15738 064.3553 220.6154 6442430 283.9697 339.3473 02.55628912223042
